1 33053U 08029A   17337.93832212 +.00000540 +00000-0 +14270-4 0  9991
2 33053 025.5830 288.4250 0012768 086.1828 274.0167 15.11014376523001
